QZS-1R                  
1 49336U 21096A   24061.96854782 -.00000236  00000+0  00000+0 0  9995
2 49336  35.7198  92.1572 0748370 269.2755 279.9907  1.00296867  8618
